STARLINK-37071          
1 68190U 26050Z   26083.91667824 -.00059903  00000+0 -30133-3 0  9999
2 68190  53.1590 205.3188 0001017  88.9790 327.2338 15.80925451  2893
STARLINK-37091          
1 68191U 26050AA  26083.91667824 -.00033144  00000+0 -16475-3 0  9992
2 68191  53.1588 205.3098 0001275  65.3821 355.1152 15.80908375  2891
STARLINK-37098          
1 68192U 26050AB  26083.91667824 -.00030866  00000+0 -15323-3 0  9992
2 68192  53.1591 205.3010 0000984  79.5546 345.2258 15.80896437  2899
STARLINK-37090          
1 68193U 26050AC  26083.91667824 -.00025767  00000+0 -12727-3 0  9992
2 68193  53.1594 205.2828 0001088  95.9149 337.4101 15.80894388  2899
STARLINK-37093          
1 68194U 26050AD  26083.91667824  .00005028  00000+0  28990-4 0  9999
2 68194  53.1594 205.3271 0000762  45.8301   6.1400 15.80878033  2896
STARLINK-37058          
1 68195U 26050AE  26083.91667824 -.00025494  00000+0 -12590-3 0  9999
2 68195  53.1591 205.2918 0000641  58.5059  10.5481 15.80892862  2892
YAOGAN-50 02            
1 68196U 26051A   26082.15425797  .00000264  00000+0  60948-4 0  9994
2 68196 142.0892 272.3752 0072308 159.1554 201.2127 13.86640908  1074
CZ-6A R/B               
1 68197U 26051B   26083.80018524  .00001065  00000+0  13439-3 0  9996
2 68197 142.0322 284.5097 0186142 159.2684 201.5706 14.56365288  1368
2026-052A               
1 68198U 26052A   26083.96585845  .00006966  00000+0  43274-3 0  9995
2 68198  97.5363 160.0756 0012801 232.9706 127.0353 15.09917610  1330
YUXING-3 06             
1 68199U 26052B   26083.96498390  .00004893  00000+0  30421-3 0  9991
2 68199  97.5367 160.0763 0011895 234.0463 125.9663 15.10045205  1333
2026-052C               
1 68200U 26052C   26083.96420779  .00004820  00000+0  29872-3 0  9998
2 68200  97.5361 160.0779 0011630 236.0874 123.9250 15.10175386  1325
2026-052D               
1 68201U 26052D   26083.96328821  .00007014  00000+0  43067-3 0  9994
2 68201  97.5368 160.0761 0010840 232.8059 127.2181 15.10360592  1331
2026-052E               
1 68202U 26052E   26083.96326962  .00006803  00000+0  41782-3 0  9996
2 68202  97.5368 160.0788 0010655 237.3218 122.6985 15.10361649  1337
2026-052F               
1 68203U 26052F   26083.96181230  .00006807  00000+0  41528-3 0  9996
2 68203  97.5369 160.0832 0009922 229.2056 130.8314 15.10615063  1333
2026-052G               
1 68204U 26052G   26083.96152652  .00006951  00000+0  42340-3 0  9996
2 68204  97.5371 160.0791 0009478 232.3140 127.7231 15.10663045  1332
KZ-11 R/B               
1 68205U 26052H   26083.94898731  .00028683  18771-5  42817-3 0  9995
2 68205  97.3414 159.6614 0547342 344.5900  13.9192 14.67006920  1295
