[{"OBJECT_NAME":"STARLINK-37071","OBJECT_ID":"2026-050Z","EPOCH":"2026-03-24T22:00:00.999936","MEAN_MOTION":15.80925451,"ECCENTRICITY":0.00010171,"INCLINATION":53.159,"RA_OF_ASC_NODE":205.3188,"ARG_OF_PERICENTER":88.979,"MEAN_ANOMALY":327.2338,"EPHEMERIS_TYPE":0,"CLASSIFICATION_TYPE":"U","NORAD_CAT_ID":68190,"ELEMENT_SET_NO":999,"REV_AT_EPOCH":289,"BSTAR":-0.00030132581,"MEAN_MOTION_DOT":-0.00059903,"MEAN_MOTION_DDOT":0},{"OBJECT_NAME":"STARLINK-37091","OBJECT_ID":"2026-050AA","EPOCH":"2026-03-24T22:00:00.999936","MEAN_MOTION":15.80908375,"ECCENTRICITY":0.00012753,"INCLINATION":53.1588,"RA_OF_ASC_NODE":205.3098,"ARG_OF_PERICENTER":65.3821,"MEAN_ANOMALY":355.1152,"EPHEMERIS_TYPE":0,"CLASSIFICATION_TYPE":"U","NORAD_CAT_ID":68191,"ELEMENT_SET_NO":999,"REV_AT_EPOCH":289,"BSTAR":-0.00016474545,"MEAN_MOTION_DOT":-0.00033144,"MEAN_MOTION_DDOT":0},{"OBJECT_NAME":"STARLINK-37098","OBJECT_ID":"2026-050AB","EPOCH":"2026-03-24T22:00:00.999936","MEAN_MOTION":15.80896437,"ECCENTRICITY":9.847e-5,"INCLINATION":53.1591,"RA_OF_ASC_NODE":205.301,"ARG_OF_PERICENTER":79.5546,"MEAN_ANOMALY":345.2258,"EPHEMERIS_TYPE":0,"CLASSIFICATION_TYPE":"U","NORAD_CAT_ID":68192,"ELEMENT_SET_NO":999,"REV_AT_EPOCH":289,"BSTAR":-0.00015323098,"MEAN_MOTION_DOT":-0.00030866,"MEAN_MOTION_DDOT":0},{"OBJECT_NAME":"STARLINK-37090","OBJECT_ID":"2026-050AC","EPOCH":"2026-03-24T22:00:00.999936","MEAN_MOTION":15.80894388,"ECCENTRICITY":0.0001088,"INCLINATION":53.1594,"RA_OF_ASC_NODE":205.2828,"ARG_OF_PERICENTER":95.9149,"MEAN_ANOMALY":337.4101,"EPHEMERIS_TYPE":0,"CLASSIFICATION_TYPE":"U","NORAD_CAT_ID":68193,"ELEMENT_SET_NO":999,"REV_AT_EPOCH":289,"BSTAR":-0.00012726846,"MEAN_MOTION_DOT":-0.00025767,"MEAN_MOTION_DDOT":0},{"OBJECT_NAME":"STARLINK-37093","OBJECT_ID":"2026-050AD","EPOCH":"2026-03-24T22:00:00.999936","MEAN_MOTION":15.80878033,"ECCENTRICITY":7.622e-5,"INCLINATION":53.1594,"RA_OF_ASC_NODE":205.3271,"ARG_OF_PERICENTER":45.8301,"MEAN_ANOMALY":6.14,"EPHEMERIS_TYPE":0,"CLASSIFICATION_TYPE":"U","NORAD_CAT_ID":68194,"ELEMENT_SET_NO":999,"REV_AT_EPOCH":289,"BSTAR":2.8990148e-5,"MEAN_MOTION_DOT":5.028e-5,"MEAN_MOTION_DDOT":0},{"OBJECT_NAME":"STARLINK-37058","OBJECT_ID":"2026-050AE","EPOCH":"2026-03-24T22:00:00.999936","MEAN_MOTION":15.80892862,"ECCENTRICITY":6.419e-5,"INCLINATION":53.1591,"RA_OF_ASC_NODE":205.2918,"ARG_OF_PERICENTER":58.5059,"MEAN_ANOMALY":10.5481,"EPHEMERIS_TYPE":0,"CLASSIFICATION_TYPE":"U","NORAD_CAT_ID":68195,"ELEMENT_SET_NO":999,"REV_AT_EPOCH":289,"BSTAR":-0.0001258958,"MEAN_MOTION_DOT":-0.00025494,"MEAN_MOTION_DDOT":0},{"OBJECT_NAME":"YAOGAN-50 02","OBJECT_ID":"2026-051A","EPOCH":"2026-03-23T03:42:07.888608","MEAN_MOTION":13.86640908,"ECCENTRICITY":0.0072308,"INCLINATION":142.0892,"RA_OF_ASC_NODE":272.3752,"ARG_OF_PERICENTER":159.1554,"MEAN_ANOMALY":201.2127,"EPHEMERIS_TYPE":0,"CLASSIFICATION_TYPE":"U","NORAD_CAT_ID":68196,"ELEMENT_SET_NO":999,"REV_AT_EPOCH":107,"BSTAR":6.0947935e-5,"MEAN_MOTION_DOT":2.64e-6,"MEAN_MOTION_DDOT":0},{"OBJECT_NAME":"CZ-6A R/B","OBJECT_ID":"2026-051B","EPOCH":"2026-03-24T19:12:16.004736","MEAN_MOTION":14.56365288,"ECCENTRICITY":0.0186142,"INCLINATION":142.0322,"RA_OF_ASC_NODE":284.5097,"ARG_OF_PERICENTER":159.2684,"MEAN_ANOMALY":201.5706,"EPHEMERIS_TYPE":0,"CLASSIFICATION_TYPE":"U","NORAD_CAT_ID":68197,"ELEMENT_SET_NO":999,"REV_AT_EPOCH":136,"BSTAR":0.00013439455,"MEAN_MOTION_DOT":1.065e-5,"MEAN_MOTION_DDOT":0},{"OBJECT_NAME":"2026-052A","OBJECT_ID":"2026-052A","EPOCH":"2026-03-24T23:10:50.170080","MEAN_MOTION":15.0991761,"ECCENTRICITY":0.00128015,"INCLINATION":97.5363,"RA_OF_ASC_NODE":160.0756,"ARG_OF_PERICENTER":232.9706,"MEAN_ANOMALY":127.0353,"EPHEMERIS_TYPE":0,"CLASSIFICATION_TYPE":"U","NORAD_CAT_ID":68198,"ELEMENT_SET_NO":999,"REV_AT_EPOCH":133,"BSTAR":0.00043274078,"MEAN_MOTION_DOT":6.966e-5,"MEAN_MOTION_DDOT":0},{"OBJECT_NAME":"YUXING-3 06","OBJECT_ID":"2026-052B","EPOCH":"2026-03-24T23:09:34.608960","MEAN_MOTION":15.10045205,"ECCENTRICITY":0.00118958,"INCLINATION":97.5367,"RA_OF_ASC_NODE":160.0763,"ARG_OF_PERICENTER":234.0463,"MEAN_ANOMALY":125.9663,"EPHEMERIS_TYPE":0,"CLASSIFICATION_TYPE":"U","NORAD_CAT_ID":68199,"ELEMENT_SET_NO":999,"REV_AT_EPOCH":133,"BSTAR":0.00030420807,"MEAN_MOTION_DOT":4.893e-5,"MEAN_MOTION_DDOT":0},{"OBJECT_NAME":"2026-052C","OBJECT_ID":"2026-052C","EPOCH":"2026-03-24T23:08:27.553056","MEAN_MOTION":15.10175386,"ECCENTRICITY":0.00116302,"INCLINATION":97.5361,"RA_OF_ASC_NODE":160.0779,"ARG_OF_PERICENTER":236.0874,"MEAN_ANOMALY":123.925,"EPHEMERIS_TYPE":0,"CLASSIFICATION_TYPE":"U","NORAD_CAT_ID":68200,"ELEMENT_SET_NO":999,"REV_AT_EPOCH":132,"BSTAR":0.0002987195,"MEAN_MOTION_DOT":4.82e-5,"MEAN_MOTION_DDOT":0},{"OBJECT_NAME":"2026-052D","OBJECT_ID":"2026-052D","EPOCH":"2026-03-24T23:07:08.101344","MEAN_MOTION":15.10360592,"ECCENTRICITY":0.00108407,"INCLINATION":97.5368,"RA_OF_ASC_NODE":160.0761,"ARG_OF_PERICENTER":232.8059,"MEAN_ANOMALY":127.2181,"EPHEMERIS_TYPE":0,"CLASSIFICATION_TYPE":"U","NORAD_CAT_ID":68201,"ELEMENT_SET_NO":999,"REV_AT_EPOCH":133,"BSTAR":0.00043066511,"MEAN_MOTION_DOT":7.014e-5,"MEAN_MOTION_DDOT":0},{"OBJECT_NAME":"2026-052E","OBJECT_ID":"2026-052E","EPOCH":"2026-03-24T23:07:06.495168","MEAN_MOTION":15.10361649,"ECCENTRICITY":0.00106554,"INCLINATION":97.5368,"RA_OF_ASC_NODE":160.0788,"ARG_OF_PERICENTER":237.3218,"MEAN_ANOMALY":122.6985,"EPHEMERIS_TYPE":0,"CLASSIFICATION_TYPE":"U","NORAD_CAT_ID":68202,"ELEMENT_SET_NO":999,"REV_AT_EPOCH":133,"BSTAR":0.00041782447,"MEAN_MOTION_DOT":6.803e-5,"MEAN_MOTION_DDOT":0},{"OBJECT_NAME":"2026-052F","OBJECT_ID":"2026-052F","EPOCH":"2026-03-24T23:05:00.582720","MEAN_MOTION":15.10615063,"ECCENTRICITY":0.00099228,"INCLINATION":97.5369,"RA_OF_ASC_NODE":160.0832,"ARG_OF_PERICENTER":229.2056,"MEAN_ANOMALY":130.8314,"EPHEMERIS_TYPE":0,"CLASSIFICATION_TYPE":"U","NORAD_CAT_ID":68203,"ELEMENT_SET_NO":999,"REV_AT_EPOCH":133,"BSTAR":0.00041527778,"MEAN_MOTION_DOT":6.807e-5,"MEAN_MOTION_DDOT":0},{"OBJECT_NAME":"2026-052G","OBJECT_ID":"2026-052G","EPOCH":"2026-03-24T23:04:35.891328","MEAN_MOTION":15.10663045,"ECCENTRICITY":0.00094786,"INCLINATION":97.5371,"RA_OF_ASC_NODE":160.0791,"ARG_OF_PERICENTER":232.314,"MEAN_ANOMALY":127.7231,"EPHEMERIS_TYPE":0,"CLASSIFICATION_TYPE":"U","NORAD_CAT_ID":68204,"ELEMENT_SET_NO":999,"REV_AT_EPOCH":133,"BSTAR":0.00042340052,"MEAN_MOTION_DOT":6.951e-5,"MEAN_MOTION_DDOT":0},{"OBJECT_NAME":"KZ-11 R/B","OBJECT_ID":"2026-052H","EPOCH":"2026-03-24T22:46:32.503584","MEAN_MOTION":14.6700692,"ECCENTRICITY":0.05473424,"INCLINATION":97.3414,"RA_OF_ASC_NODE":159.6614,"ARG_OF_PERICENTER":344.59,"MEAN_ANOMALY":13.9192,"EPHEMERIS_TYPE":0,"CLASSIFICATION_TYPE":"U","NORAD_CAT_ID":68205,"ELEMENT_SET_NO":999,"REV_AT_EPOCH":129,"BSTAR":0.000428175,"MEAN_MOTION_DOT":0.00028683,"MEAN_MOTION_DDOT":1.877141e-6}]
